[
  {
    "links": {
      "self": "http://www.neowsapp.com/rest/v1/neo/2027002?api_key=8MhXrXjdH1Jr2bya5PCI9GSJw3FBOpXeO0UM2taO"
    },
    "id": "2027002",
    "neo_reference_id": "2027002",
    "name": "27002 (1998 DV9)",
    "designation": "27002",
    "nasa_jpl_url": "http://ssd.jpl.nasa.gov/sbdb.cgi?sstr=2027002",
    "absolute_magnitude_h": 18.23,
    "estimated_diameter": {
      "kilometers": {
        "estimated_diameter_min": 0.6005580277,
        "estimated_diameter_max": 1.3428885744
      },
      "meters": {
        "estimated_diameter_min": 600.5580277247,
        "estimated_diameter_max": 1342.8885744257
      },
      "miles": {
        "estimated_diameter_min": 0.3731693422,
        "estimated_diameter_max": 0.8344320164
      },
      "feet": {
        "estimated_diameter_min": 1970.3347996804,
        "estimated_diameter_max": 4405.8025505189
      }
    },
    "is_potentially_hazardous_asteroid": true,
    "close_approach_data": {
      "close_approach_date": "1975-01-31",
      "close_approach_date_full": "1975-Jan-31 10:27",
      "epoch_date_close_approach": 160396020000,
      "relative_velocity": {
        "kilometers_per_second": "7.5976386346",
        "kilometers_per_hour": "27351.4990845212",
        "miles_per_hour": "16995.1578617126"
      },
      "miss_distance": {
        "astronomical": "0.004526414",
        "lunar": "1.760775046",
        "kilometers": "677141.89313818",
        "miles": "420756.461659684"
      },
      "orbiting_body": "Earth"
    },
    "orbital_data": {
      "orbit_id": "100",
      "orbit_determination_date": "2021-06-03 05:50:32",
      "first_observation_date": "1998-02-23",
      "last_observation_date": "2021-06-03",
      "data_arc_in_days": 8501,
      "observations_used": 492,
      "orbit_uncertainty": "0",
      "minimum_orbit_intersection": ".00196349",
      "jupiter_tisserand_invariant": "4.015",
      "epoch_osculation": "2459600.5",
      "eccentricity": ".4339117966590596",
      "semi_major_axis": "1.743611839813199",
      "inclination": "8.701896598168894",
      "ascending_node_longitude": "130.3663329139724",
      "orbital_period": "840.9557433443906",
      "perihelion_distance": ".9870380937238458",
      "perihelion_argument": ".7879780728207023",
      "aphelion_distance": "2.500185585902553",
      "perihelion_time": "2459283.444195666471",
      "mean_anomaly": "135.7266306383112",
      "mean_motion": ".4280843585993226",
      "equinox": "J2000",
      "orbit_class": {
        "orbit_class_type": "APO",
        "orbit_class_description": "Near-Earth asteroid orbits which cross the Earth\u2019s orbit similar to that of 1862 Apollo",
        "orbit_class_range": "a (semi-major axis) > 1.0 AU; q (perihelion) < 1.017 AU"
      }
    },
    "is_sentry_object": false
  },
  {
    "links": {
      "self": "http://www.neowsapp.com/rest/v1/neo/2004581?api_key=8MhXrXjdH1Jr2bya5PCI9GSJw3FBOpXeO0UM2taO"
    },
    "id": "2004581",
    "neo_reference_id": "2004581",
    "name": "4581 Asclepius (1989 FC)",
    "name_limited": "Asclepius",
    "designation": "4581",
    "nasa_jpl_url": "http://ssd.jpl.nasa.gov/sbdb.cgi?sstr=2004581",
    "absolute_magnitude_h": 20.79,
    "estimated_diameter": {
      "kilometers": {
        "estimated_diameter_min": 0.1847374636,
        "estimated_diameter_max": 0.4130855266
      },
      "meters": {
        "estimated_diameter_min": 184.7374636151,
        "estimated_diameter_max": 413.0855266343
      },
      "miles": {
        "estimated_diameter_min": 0.1147905025,
        "estimated_diameter_max": 0.2566793668
      },
      "feet": {
        "estimated_diameter_min": 606.094060127,
        "estimated_diameter_max": 1355.2675192028
      }
    },
    "is_potentially_hazardous_asteroid": true,
    "close_approach_data": {
      "close_approach_date": "1989-03-22",
      "close_approach_date_full": "1989-Mar-22 21:42",
      "epoch_date_close_approach": 606606120000,
      "relative_velocity": {
        "kilometers_per_second": "10.6544388515",
        "kilometers_per_hour": "38355.9798655642",
        "miles_per_hour": "23832.9142670224"
      },
      "miss_distance": {
        "astronomical": "0.0045723088",
        "lunar": "1.7786281232",
        "kilometers": "684007.657462256",
        "miles": "425022.6497848928"
      },
      "orbiting_body": "Earth"
    },
    "orbital_data": {
      "orbit_id": "110",
      "orbit_determination_date": "2021-07-02 05:53:45",
      "first_observation_date": "1989-03-31",
      "last_observation_date": "2021-04-18",
      "data_arc_in_days": 11706,
      "observations_used": 423,
      "orbit_uncertainty": "0",
      "minimum_orbit_intersection": ".00343079",
      "jupiter_tisserand_invariant": "5.913",
      "epoch_osculation": "2459600.5",
      "eccentricity": ".3569194962261713",
      "semi_major_axis": "1.022716381263667",
      "inclination": "4.917512506877177",
      "ascending_node_longitude": "180.2061162118426",
      "orbital_period": "377.7732872805338",
      "perihelion_distance": ".6576889656807864",
      "perihelion_argument": "255.3611246735791",
      "aphelion_distance": "1.387743796846548",
      "perihelion_time": "2459622.468757267126",
      "mean_anomaly": "339.0648177559141",
      "mean_motion": ".9529525038456851",
      "equinox": "J2000",
      "orbit_class": {
        "orbit_class_type": "APO",
        "orbit_class_description": "Near-Earth asteroid orbits which cross the Earth\u2019s orbit similar to that of 1862 Apollo",
        "orbit_class_range": "a (semi-major axis) > 1.0 AU; q (perihelion) < 1.017 AU"
      }
    },
    "is_sentry_object": false
  },
  {
    "links": {
      "self": "http://www.neowsapp.com/rest/v1/neo/2002340?api_key=8MhXrXjdH1Jr2bya5PCI9GSJw3FBOpXeO0UM2taO"
    },
    "id": "2002340",
    "neo_reference_id": "2002340",
    "name": "2340 Hathor (1976 UA)",
    "name_limited": "Hathor",
    "designation": "2340",
    "nasa_jpl_url": "http://ssd.jpl.nasa.gov/sbdb.cgi?sstr=2002340",
    "absolute_magnitude_h": 20.2,
    "estimated_diameter": {
      "kilometers": {
        "estimated_diameter_min": 0.2424124811,
        "estimated_diameter_max": 0.5420507863
      },
      "meters": {
        "estimated_diameter_min": 242.4124811008,
        "estimated_diameter_max": 542.0507863358
      },
      "miles": {
        "estimated_diameter_min": 0.1506280858,
        "estimated_diameter_max": 0.3368146392
      },
      "feet": {
        "estimated_diameter_min": 795.3165644948,
        "estimated_diameter_max": 1778.3819018419
      }
    },
    "is_potentially_hazardous_asteroid": true,
    "close_approach_data": {
      "close_approach_date": "2086-10-21",
      "close_approach_date_full": "2086-Oct-21 16:07",
      "epoch_date_close_approach": 3686054820000,
      "relative_velocity": {
        "kilometers_per_second": "13.2915141581",
        "kilometers_per_hour": "47849.4509691557",
        "miles_per_hour": "29731.7880202512"
      },
      "miss_distance": {
        "astronomical": "0.0055177335",
        "lunar": "2.1463983315",
        "kilometers": "825441.178827645",
        "miles": "512905.364785701"
      },
      "orbiting_body": "Earth"
    },
    "orbital_data": {
      "orbit_id": "61",
      "orbit_determination_date": "2021-05-24 18:47:10",
      "first_observation_date": "1976-10-25",
      "last_observation_date": "2019-01-24",
      "data_arc_in_days": 15431,
      "observations_used": 454,
      "orbit_uncertainty": "0",
      "minimum_orbit_intersection": ".0068831",
      "jupiter_tisserand_invariant": "6.883",
      "epoch_osculation": "2459600.5",
      "eccentricity": ".449850930122026",
      "semi_major_axis": ".8437172906245873",
      "inclination": "5.859655894544813",
      "ascending_node_longitude": "211.3146607793337",
      "orbital_period": "283.0700039174034",
      "perihelion_distance": ".4641702826770809",
      "perihelion_argument": "40.0767799082648",
      "aphelion_distance": "1.223264298572094",
      "perihelion_time": "2459709.175606161504",
      "mean_anomaly": "221.7896008877113",
      "mean_motion": "1.271770215911128",
      "equinox": "J2000",
      "orbit_class": {
        "orbit_class_type": "ATE",
        "orbit_class_description": "Near-Earth asteroid orbits similar to that of 2062 Aten",
        "orbit_class_range": "a (semi-major axis) < 1.0 AU; q (perihelion) > 0.983 AU"
      }
    },
    "is_sentry_object": false
  }
]